[{"OBJECT_NAME":"STARLINK-3238","OBJECT_ID":"2021-115L","EPOCH":"2026-03-09T12:50:49.861248","MEAN_MOTION":15.08822245,"ECCENTRICITY":0.00015744,"INCLINATION":53.2191,"RA_OF_ASC_NODE":149.8428,"ARG_OF_PERICENTER":105.1106,"MEAN_ANOMALY":255.0061,"EPHEMERIS_TYPE":0,"CLASSIFICATION_TYPE":"U","NORAD_CAT_ID":49734,"ELEMENT_SET_NO":999,"REV_AT_EPOCH":23551,"BSTAR":0.00016365772,"MEAN_MOTION_DOT":2.316e-5,"MEAN_MOTION_DDOT":0},{"OBJECT_NAME":"YUNYAO-1 46","OBJECT_ID":"2025-059D","EPOCH":"2026-03-09T22:34:36.342624","MEAN_MOTION":15.10325082,"ECCENTRICITY":0.00132847,"INCLINATION":97.6091,"RA_OF_ASC_NODE":250.9055,"ARG_OF_PERICENTER":123.8801,"MEAN_ANOMALY":236.3694,"EPHEMERIS_TYPE":0,"CLASSIFICATION_TYPE":"U","NORAD_CAT_ID":63347,"ELEMENT_SET_NO":999,"REV_AT_EPOCH":5331,"BSTAR":0.0002771923,"MEAN_MOTION_DOT":4.488e-5,"MEAN_MOTION_DDOT":0}]
